[{"OBJECT_NAME":"STARLINK-31665","OBJECT_ID":"2024-084B","EPOCH":"2026-03-09T07:06:07.697952","MEAN_MOTION":15.27569495,"ECCENTRICITY":0.00017995,"INCLINATION":43.0061,"RA_OF_ASC_NODE":40.5043,"ARG_OF_PERICENTER":262.0868,"MEAN_ANOMALY":97.978,"EPHEMERIS_TYPE":0,"CLASSIFICATION_TYPE":"U","NORAD_CAT_ID":59655,"ELEMENT_SET_NO":999,"REV_AT_EPOCH":10435,"BSTAR":-0.00010616998,"MEAN_MOTION_DOT":-3.182e-5,"MEAN_MOTION_DDOT":0},{"OBJECT_NAME":"CZ-4C DEB","OBJECT_ID":"2015-069C","EPOCH":"2026-03-07T10:00:21.558816","MEAN_MOTION":15.31048021,"ECCENTRICITY":0.00583916,"INCLINATION":97.4862,"RA_OF_ASC_NODE":135.8649,"ARG_OF_PERICENTER":162.5456,"MEAN_ANOMALY":197.781,"EPHEMERIS_TYPE":0,"CLASSIFICATION_TYPE":"U","NORAD_CAT_ID":42670,"ELEMENT_SET_NO":999,"REV_AT_EPOCH":51749,"BSTAR":0.00045809658,"MEAN_MOTION_DOT":0.00014416,"MEAN_MOTION_DDOT":0}]
